ONEWEB-0020             
1 45133U 20008C   25009.84460580 -.00000642  00000+0 -18767-2 0  9991
2 45133  87.8913 140.5201 0001758 101.6239 258.5086 13.10372025239800
ONEWEB-0021             
1 45134U 20008D   25009.85956039  .00002996  00000+0  85440-2 0  9996
2 45134  87.8921 140.5424 0001346 101.5584 258.5694 13.10361133240111
ONEWEB-0023             
1 45136U 20008F   25009.87201170  .00000361  00000+0  99818-3 0  9998
2 45136  87.8921 140.5274 0001597  93.8011 266.3299 13.10376112239548
ONEWEB-0024             
1 45137U 20008G   25009.84294320 -.00000732  00000+0 -21331-2 0  9993
2 45137  87.8908 140.4994 0001483 107.1398 252.9891 13.10372235239702
ONEWEB-0025             
1 45138U 20008H   25009.86121663 -.00001148  00000+0 -33258-2 0  9998
2 45138  87.8903 140.4958 0000847  91.6385 268.4839 13.10367209240031
ONEWEB-0026             
1 45139U 20008J   25009.83901996  .00000535  00000+0  14745-2 0  9998
2 45139  87.8915 125.3653 0001771 108.9572 251.1748 13.11416813242516
ONEWEB-0028             
1 45140U 20008K   25009.87036344 -.00000452  00000+0 -13120-2 0  9996
2 45140  87.8910 125.3903 0001209  88.8149 271.3117 13.11413425240038
ONEWEB-0032             
1 45141U 20008L   25009.87616303  .00000436  00000+0  12136-2 0  9992
2 45141  87.8911 140.5427 0001384  97.5194 262.6090 13.10374227239767
